TDRS 3                  
1 19548U 88091B   21211.39461451 -.00000306  00000-0  00000-0 0  9993
2 19548  13.9354 353.9137 0033741 326.0269  81.4931  1.00269003107512
FLTSATCOM 8 (USA 46)    
1 20253U 89077A   21211.42423801 -.00000086  00000-0  00000-0 0  9999
2 20253  12.9459   2.4582 0006825 106.6747  63.7525  1.00273387242734
SKYNET 4C               
1 20776U 90079A   21211.18944891  .00000118  00000-0  00000-0 0  9998
2 20776  13.8896   2.5491 0002549 144.4409 263.0670  1.00270031113010
TDRS 5                  
1 21639U 91054B   21211.23481605  .00000076  00000-0  00000-0 0  9999
2 21639  14.2519   7.2378 0024026  11.2619 206.5302  1.00269893109833
TDRS 6                  
1 22314U 93003B   21211.39904856 -.00000302  00000-0  00000-0 0  9994
2 22314  14.1018  10.4349 0009378 109.6623 285.9176  1.00268070104539
UFO 2 (USA 95)          
1 22787U 93056A   21211.11824366  .00000118  00000-0  00000-0 0  9997
2 22787  11.3886  12.9260 0002920 160.6234 205.7729  1.00266824100675
USA 99 (MILSTAR-1 1)    
1 22988U 94009A   21211.48732602 -.00000205  00000-0  00000-0 0  9998
2 22988  14.8215  46.5590 0003593  80.4394 266.8000  1.00272925 15083
ASTRA 1D                
1 23331U 94070A   21211.46699859 -.00000276  00000-0  00000-0 0  9991
2 23331   9.6621  39.8050 0003724  90.9342 272.7273  1.00271510 98415
USA 107 (DSP 17)        
1 23435U 94084A   21211.44634800 -.00000174  00000-0  00000-0 0  9991
2 23435  14.5845   8.3973 0002394 125.2942 238.7739  1.00275784 15086
UFO 4 (USA 108)         
1 23467U 95003A   21211.36219392 -.00000029  00000-0  00000-0 0  9993
2 23467   9.8468  19.1040 0007212  94.2894 137.5513  1.00273653 97077
AMSC 1                  
1 23553U 95019A   21211.45116236 -.00000100  00000-0  00000-0 0  9999
2 23553  11.6461  28.3640 0003389  58.8644 275.9939  1.00272000 96292
TDRS 7                  
1 23613U 95035B   21211.42676785 -.00000207  00000-0  00000-0 0  9999
2 23613  14.0892   1.1141 0028702  49.1873 136.3423  1.00268962 95370
USA 113                 
1 23628U 95038A   21211.50471590 -.00000347  00000-0  00000-0 0  9999
2 23628  11.7964  27.1947 0001554  73.2759 133.2555  1.00277347 15099
USA 115 (MILSTAR-1 2)   
1 23712U 95060A   21211.44112206 -.00000026  00000-0  00000-0 0  9991
2 23712  13.3941  16.7106 0003022 125.5910 204.8284  1.00270756 14998
INMARSAT 3-F1           
1 23839U 96020A   21211.46408918 -.00000170  00000-0  00000-0 0  9998
2 23839   6.8813  60.0859 0008389  60.5231 267.5581  0.99981185 92427
INMARSAT 3-F2           
1 24307U 96053A   21211.51201233 -.00000237  00000-0  00000-0 0  9996
2 24307   5.7948  69.2976 0009558  35.1158 181.1227  1.00005898 91092
AMC-1 (GE-1)            
1 24315U 96054A   21211.43140807  .00000058  00000-0  00000-0 0  9996
2 24315   4.8648  75.7766 0003051  52.9231 203.9764  1.00273561 28440
INMARSAT 3-F3           
1 24674U 96070A   21211.20117069  .00000126  00000-0  00000-0 0  9997
2 24674   6.4466  63.8363 0006973  56.7120 293.4029  0.99990187 90073
INTELSAT 26 (IS-26)     
1 24732U 97007A   21211.12245378 -.00000026  00000-0  00000-0 0  9999
2 24732   9.6105  40.6013 0004796  55.0513 322.5139  1.00273341 54869
GALAXY 25 (G-25)        
1 24812U 97026A   21211.20099622  .00000148  00000-0  00000-0 0  9991
2 24812   2.8971  86.8303 0005050  17.3699 309.0772  1.00274009 88499
INTELSAT 5 (IS-5)       
1 24916U 97046A   21211.40896486  .00000082  00000-0  00000-0 0  9990
2 24916   6.5464  63.1770 0003166  45.5563 209.7409  1.00272447 87741
AMC-3 (GE-3)            
1 24936U 97050A   21211.47566493 -.00000266  00000-0  00000-0 0  9991
2 24936   3.7642  82.4156 0003006  53.6529 271.4803  1.00273081 34557
NSS-5                   
1 24957U 97053A   21211.20457289  .00000096  00000-0  00000-0 0  9990
2 24957   6.7885  61.4379 0003691  63.9960 306.7317  1.00273372 87293
USA 134                 
1 25019U 97065A   21211.44663115 -.00000066  00000-0  00000-0 0  9994
2 25019  10.6830  33.4916 0003553  23.5154 299.6269  1.00272606 15079
ASTRA 1G                
1 25071U 97076A   21211.27012321  .00000108  00000-0  00000-0 0  9998
2 25071   5.5148  70.6422 0003718  54.2638 299.8460  1.00274252 86621
INMARSAT 3-F5           
1 25153U 98006B   21211.49955992 -.00000296  00000-0  00000-0 0  9996
2 25153   5.6884  67.9530 0004586  63.3881 302.8254  1.00275634 86029
UFO 8 (USA 138)         
1 25258U 98016A   21211.36044913 -.00000033  00000-0  00000-0 0  9990
2 25258   9.0835  31.1751 0004066  99.7386 118.7138  1.00269945 85979
ASTRA 2A                
1 25462U 98050A   21211.27186792  .00000142  00000-0  00000-0 0  9997
2 25462   2.6063  89.0049 0002322  26.1576 318.8136  1.00268329 28454
JCSAT-4A                
1 25630U 99006A   21211.50869736 -.00000316  00000-0  00000-0 0  9992
2 25630   5.5014  71.2753 0005627 139.7118  56.4748  1.00270086 32731
SKYNET 4E               
1 25639U 99009B   21210.69186675 -.00000042  00000-0  00000-0 0  9993
2 25639  11.0839  18.6798 0002181 110.6879  66.0682  1.00271090 33501
ASIASAT 3S              
1 25657U 99013A   21211.51105273 -.00000229  00000-0  00000-0 0  9992
2 25657   5.6812  69.8061 0004463  35.8667 174.5401  1.00272842 81941
NIMIQ 1                 
1 25740U 99027A   21211.46429427 -.00000204  00000-0  00000-0 0  9997
2 25740   2.0778  90.4283 0005942  35.2217 263.2563  1.00272863 81173
ABS-7                   
1 25894U 99046A   21211.27291476  .00000150  00000-0  00000-0 0  9997
2 25894   1.9577  91.0370 0003314  35.2853 313.4144  1.00275372 79245
ABS-6                   
1 25924U 99053A   21211.51332086 -.00000124  00000-0  00000-0 0  9991
2 25924   0.0594 298.1779 0003089 168.6827 185.3032  1.00271712 79978
AMC-4 (GE-4)            
1 25954U 99060A   21211.41068709  .00000083  00000-0  00000-0 0  9992
2 25954   0.7153  95.4959 0003085  37.6175 188.0864  1.00273282 25679
UFO 10 (USA 146)        
1 25967U 99063A   21211.33345649 -.00000194  00000-0  00000-0 0  9995
2 25967   8.3258  34.4451 0005873  90.5717 280.3604  1.00269206 79476
GALAXY 11 (G-11)        
1 26038U 99071A   21211.24693993 -.00000168  00000-0  00000-0 0  9993
2 26038   2.2004  91.5884 0000433 221.6313 350.6669  1.00272431 79205
USA 148                 
1 26052U 00001A   21211.30222602  .00000033  00000-0  00000-0 0  9996
2 26052   9.0342  44.2987 0002149  70.5450 122.4358  1.00274244 15089
ASIASTAR                
1 26107U 00016A   21211.07188706 -.00000342  00000-0  00000-0 0  9997
2 26107   4.9310  74.4418 0004405  52.1992 312.1410  1.00274862 78045
USA 149 (DSP 20)        
1 26356U 00024A   21211.23511635  .00000088  00000-0  00000+0 0  9996
2 26356  11.8466  23.6299 0002880 206.9349 356.8276  1.00261877 13724
EUTELSAT 80A            
1 26369U 00028A   21211.31970038 -.00000109  00000-0  00000-0 0  9995
2 26369   4.3360  78.2281 0003468 127.4787 205.0238  1.00273269 77553
TDRS 8                  
1 26388U 00034A   21211.06865934 -.00000239  00000-0  00000-0 0  9997
2 26388   9.8604  44.7560 0019162 346.9866  29.9203  1.00264428 77302
INTELSAT 9 (IS-9)       
1 26451U 00043A   21211.47162209 -.00000294  00000-0  00000-0 0  9999
2 26451   6.5345  63.3658 0002543  69.3279 295.4018  1.00272908 26279
NSS-11 (AAP-1)          
1 26554U 00059A   21211.51672307  .00000021  00000-0  00000-0 0  9997
2 26554   0.0166 353.0664 0002481 120.6630 196.6387  1.00272502 23427
USA 153                 
1 26575U 00065A   21210.43166144 -.00000336  00000-0  00000+0 0  9993
2 26575   8.5585  47.6197 0001961  92.6064  96.6836  1.00267215 13721
AMC-6 (GE-6)            
1 26580U 00067A   21211.40697899  .00000100  00000-0  00000-0 0  9994
2 26580   0.0252 322.7083 0002822 181.2099 171.8274  1.00271349 76045
INTELSAT 12 (IS-12)     
1 26590U 00068A   21211.20727721  .00000005  00000-0  00000+0 0  9995
2 26590   3.8944  82.6405 0006670  12.5829 351.6699  1.00271777 75927
INTELSAT 1R (IS-1R)     
1 26608U 00072A   21210.93867781 -.00000146  00000-0  00000-0 0  9998
2 26608   3.6896  83.4383 0000594 266.1784  93.1930  1.00271479 23435
ANIK F1                 
1 26624U 00076A   21211.44921419 -.00000066  00000-0  00000-0 0  9997
2 26624   0.6300  96.9465 0010874  18.0232 245.8037  1.00273019 25263
ASTRA 2D                
1 26638U 00081A   21211.15466218  .00000054  00000-0  00000-0 0  9993
2 26638   6.6184  62.3798 0001890  72.1589 286.4015  1.00269290 35022
AMC-8 (GE-8)            
1 26639U 00081B   21211.41059104  .00000083  00000-0  00000-0 0  9997
2 26639   1.6440  92.0062 0002676  41.0416 188.0202  1.00272467 75450
USA 157 (MILSTAR-2 2)   
1 26715U 01009A   21211.43666494  .00000007  00000-0  00000-0 0  9997
2 26715   9.7067  28.6217 0001888 124.7482 187.9812  1.00267910 15076
EUTELSAT 133 WEST A     
1 26719U 01011A   21211.43046727  .00000071  00000-0  00000-0 0  9996
2 26719   2.9286  85.7290 0003916  45.1352 199.4912  1.00273348 74660
INTELSAT 10 (IS-10)     
1 26766U 01019A   21211.44527684  .00000028  00000-0  00000-0 0  9995
2 26766   4.8219  76.0153 0002430  63.8638 146.4978  1.00273549 27748
INTELSAT 901 (IS-901)   
1 26824U 01024A   21211.51368816 -.00000206  00000-0  00000-0 0  9993
2 26824   0.0536 261.1655 0000854 256.5478 308.0541  1.00272607  5100
ASTRA 2C                
1 26853U 01025A   21211.47620091 -.00000284  00000-0  00000-0 0  9993
2 26853   3.7904  82.2056 0002929  62.7028 276.6776  1.00053119 27166
USA 159 (DSP 21)        
1 26880U 01033A   21211.39647200 -.00000304  00000-0  00000-0 0  9997
2 26880  11.1351  27.7596 0001337 147.3382 226.5226  1.00281054 15097
INTELSAT 902 (IS-902)   
1 26900U 01039A   21211.47162209 -.00000287  00000-0  00000-0 0  9996
2 26900   1.6029  92.5468 0003003  37.3777 298.0798  1.00271888 72817
USA 164 (MILSTAR-2 3)   
1 27168U 02001A   21210.62408442  .00000092  00000-0  00000-0 0  9994
2 27168   9.1734  30.2996 0002261  70.7475  90.0376  1.00273913 13768
